STARLINK-4323           
1 53069U 22077AC  24224.39211555  .00001244  00000+0  10144-3 0  9999
2 53069  97.6583  44.4362 0001760  84.0264 276.1161 15.01262564115186
STARLINK-4342           
1 53070U 22077AD  24224.46432639  .00000801  00000+0  66920-4 0  9999
2 53070  97.6589  44.4990 0002450 103.8230 256.3266 15.01260752115195
STARLINK-4328           
1 53071U 22077AE  24224.45691334  .00001282  00000+0  10436-3 0  9992
2 53071  97.6585  44.5014 0001644  90.9286 269.2127 15.01266193115195
STARLINK-4344           
1 53072U 22077AF  24224.05330242  .00000520  00000+0  45091-4 0  9997
2 53072  97.6585  44.1231 0001840  89.1284 271.0151 15.01256408115139
STARLINK-4346           
1 53073U 22077AG  24224.45715930  .00001885  00000+0  15128-3 0  9995
2 53073  97.6581  44.4925 0001803  75.1253 285.0171 15.01266658115190
STARLINK-4310           
1 53074U 22077AH  24224.46061459  .00001412  00000+0  11447-3 0  9993
2 53074  97.6591  44.4935 0001046  88.3243 271.8101 15.01267894115196
STARLINK-4348           
1 53075U 22077AJ  24224.05515379  .00000639  00000+0  54303-4 0  9993
2 53075  97.6578  44.0953 0001765  86.2866 273.8560 15.01262289115132
STARLINK-4347           
1 53076U 22077AK  24224.05353979  .00000163  00000+0  17284-4 0  9999
2 53076  97.6580  44.1067 0001212 126.4887 233.6449 15.01259939115138
STARLINK-4315           
1 53077U 22077AL  24223.51452549  .00000504  00000+0  43822-4 0  9999
2 53077  97.6578  43.5767 0002370  85.9496 274.1999 15.01262425115052
STARLINK-4322           
1 53078U 22077AM  24224.45135501  .00001331  00000+0  10819-3 0  9998
2 53078  97.6577  44.4989 0001509  90.4488 269.6909 15.01269973115193
STARLINK-4327           
1 53079U 22077AN  24224.44580673 -.00001206  00000+0 -89306-4 0  9993
2 53079  97.6578  44.4958 0002194  84.1231 276.0243 15.01254177115191
STARLINK-4330           
1 53080U 22077AP  24224.25001157 -.00021285  00000+0 -16568-2 0  9996
2 53080  97.6573  44.3019 0002038  89.6403 272.9716 15.01276896115162
STARLINK-4326           
1 53081U 22077AQ  24224.38310330  .00000936  00000+0  77422-4 0  9993
2 53081  97.6577  44.4160 0002112  85.4316 274.7149 15.01263125115188
STARLINK-4321           
1 53082U 22077AR  24224.04405064 -.00000326  00000+0 -20814-4 0  9994
2 53082  97.6570  44.1002 0003070  74.2871 285.8692 15.01254687115134
STARLINK-4251           
1 53083U 22077AS  24224.09774199  .00000234  00000+0  22862-4 0  9999
2 53083  97.6567  44.1498 0003338  56.3535 303.8007 15.01254865115145
STARLINK-4319           
1 53084U 22077AT  24224.44211076 -.00000909  00000+0 -66173-4 0  9993
2 53084  97.6566  44.4918 0003248  69.2170 290.9402 15.01263135115193
STARLINK-4324           
1 53085U 22077AU  24223.50366240  .00000663  00000+0  56222-4 0  9993
2 53085  97.6570  43.5697 0003482  62.5199 297.6379 15.01263197115050
STARLINK-4318           
1 53086U 22077AV  24224.04034609 -.00000153  00000+0 -73439-5 0  9991
2 53086  97.6567  44.0960 0003371  60.3282 299.8278 15.01255969115131
STARLINK-4329           
1 53087U 22077AW  24224.10514788 -.00000041  00000+0  14035-5 0  9992
2 53087  97.6570  44.1505 0003357  56.7510 303.4035 15.01254810115147
STARLINK-4333           
1 53088U 22077AX  24224.43655384  .00003703  00000+0  29280-3 0  9990
2 53088  97.6561  44.4858 0003884  66.0198 294.1432 15.01252546115199
STARLINK-4063           
1 53132U 22083A   24224.04108338  .00001702  00000+0  12498-3 0  9996
2 53132  53.2179 238.3060 0001578  94.1847 265.9325 15.08841325114947
STARLINK-4154           
1 53133U 22083B   24224.06686963  .00001714  00000+0  12580-3 0  9999
2 53133  53.2169 238.2722 0001599  94.1790 265.9385 15.08822751114949
STARLINK-4150           
1 53134U 22083C   24224.04844290  .00002172  00000+0  15452-3 0  9997
2 53134  53.2142 238.2754 0001466  94.0324 266.0836 15.08840458114948
STARLINK-4023           
1 53135U 22083D   24224.05580265  .00003298  00000+0  22518-3 0  9999
2 53135  53.2147 238.2407 0001546  95.1415 264.9753 15.08843758114942
STARLINK-4152           
1 53136U 22083E   24224.05212410  .00009987  00000+0  64462-3 0  9999
2 53136  53.2158 238.2580 0001688  84.0063 276.1122 15.08845353114948
STARLINK-4145           
1 53137U 22083F   24224.30971768  .00002143  00000+0  15266-3 0  9991
2 53137  53.2152 237.0996 0001425  99.2371 260.8782 15.08847382114980
STARLINK-4141           
1 53138U 22083G   24224.04340295  .00002080  00000+0  14876-3 0  9994
2 53138  53.2148 233.4787 0001776  99.1912 260.9281 15.08840673115008
STARLINK-4185           
1 53139U 22083H   24224.29869029  .00002004  00000+0  14395-3 0  9995
2 53139  53.2151 237.1474 0001593  78.9661 281.1511 15.08837588114988
STARLINK-4170           
1 53140U 22083J   24224.43484566  .00000602  00000+0  55893-4 0  9993
2 53140  53.2143 236.5376 0001414 117.5828 242.5308 15.08850031115009
STARLINK-4103           
1 53141U 22083K   24224.41644309  .00005459  00000+0  36079-3 0  9994
2 53141  53.2165 236.6220 0001453  75.7844 284.3309 15.08839627115002
STARLINK-4101           
1 53142U 22083L   24224.02732198  .00001197  00000+0  93281-4 0  9990
2 53142  53.2150 238.3389 0001375  89.8847 270.2303 15.08837426114949
STARLINK-4102           
1 53143U 22083M   24224.41276199  .00001705  00000+0  12516-3 0  9994
2 53143  53.2153 236.6408 0001340 101.8322 258.2821 15.08838927115007
STARLINK-4100           
1 53144U 22083N   24223.43020823 -.00000961  00000+0 -42299-4 0  9994
2 53144  53.2172 241.0609 0001143  71.5946 288.5170 15.08841315114229
STARLINK-4106           
1 53145U 22083P   24224.33916822  .00000931  00000+0  76610-4 0  9997
2 53145  53.2161 236.9707 0001417  92.0572 268.0583 15.08837969114992
STARLINK-4099           
1 53146U 22083Q   24224.35388471  .00004910  00000+0  32631-3 0  9998
2 53146  53.2153 236.9042 0001278  97.7012 262.4125 15.08845847114996
STARLINK-4094           
1 53147U 22083R   24224.07051672 -.00002668  00000+0 -14966-3 0  9999
2 53147  53.2155 238.1739 0000902  62.4052 297.7032 15.08834197114952
STARLINK-4021           
1 53149U 22083T   24224.29689711  .00000691  00000+0  61494-4 0  9997
2 53149  53.2160 227.3613 0001451  91.6187 268.4972 15.08847989115125
STARLINK-4038           
1 53150U 22083U   24224.38423691  .00001560  00000+0  11606-3 0  9997
2 53150  53.2164 226.7700 0001389  90.8373 269.2779 15.08849093115132
STARLINK-4040           
1 53151U 22083V   24224.30695951  .00001280  00000+0  98518-4 0  9997
2 53151  53.2155 227.1170 0001444  96.3165 263.7991 15.08841812115126
STARLINK-4045           
1 53152U 22083W   24224.44680941  .00000952  00000+0  77877-4 0  9996
2 53152  53.2161 226.4869 0001406  93.9697 266.1456 15.08835652115142
STARLINK-4098           
1 53153U 22083X   24224.03832293  .00010600  00000+0  68264-3 0  9991
2 53153  53.2146 228.3142 0001487 113.6344 246.4804 15.08864274115082
STARLINK-4077           
1 53154U 22083Y   24224.31064832  .00000972  00000+0  79169-4 0  9997
2 53154  53.2164 227.1002 0001389  98.9342 261.1807 15.08835108115125
STARLINK-4088           
1 53155U 22083Z   24224.42839836  .00001374  00000+0  10440-3 0  9997
2 53155  53.2158 226.5699 0001506  96.7585 263.3578 15.08843759115142
STARLINK-4087           
1 53156U 22083AA  24224.41734485  .00001021  00000+0  82229-4 0  9995
2 53156  53.2157 226.4909 0001476  92.1070 268.0091 15.08844142115149
STARLINK-4093           
1 53157U 22083AB  24224.42104158  .00003127  00000+0  21446-3 0  9997
2 53157  53.2148 226.6012 0001426  90.0417 270.0738 15.08845587115149
STARLINK-4054           
1 53158U 22083AC  24224.03465065  .00004880  00000+0  32449-3 0  9994
2 53158  53.2151 228.3375 0001669  86.2739 273.8444 15.08842609115088
STARLINK-4111           
1 53159U 22083AD  24223.42008354  .00001661  00000+0  12242-3 0  9994
2 53159  53.2153 231.0922 0001588  85.7191 274.3982 15.08843865114364
STARLINK-4096           
1 53160U 22083AE  24224.42472438  .00000133  00000+0  26482-4 0  9990
2 53160  53.2168 226.5852 0001482  96.5279 263.5882 15.08837835115149
STARLINK-4055           
1 53161U 22083AF  24224.40263994  .00002044  00000+0  14646-3 0  9995
2 53161  53.2162 226.6823 0001625  95.5352 264.5826 15.08843207115142
STARLINK-4114           
1 53162U 22083AG  24224.28583567  .00001799  00000+0  13106-3 0  9999
2 53162  53.2157 227.2158 0001532  99.2790 260.8376 15.08855229115123
STARLINK-4104           
1 53163U 22083AH  24224.41001021  .00001955  00000+0  14082-3 0  9993
2 53163  53.2150 226.7937 0001327  86.0443 274.0701 15.08851587115141
STARLINK-4116           
1 53164U 22083AJ  24224.00888726  .00000423  00000+0  44676-4 0  9996
2 53164  53.2156 228.4521 0001993  92.4582 267.6639 15.08837727115081
STARLINK-4090           
1 53165U 22083AK  24224.39160582  .00002955  00000+0  20368-3 0  9995
2 53165  53.2152 226.7360 0001418  91.0988 269.0166 15.08843584115143
STARLINK-4110           
1 53166U 22083AL  24224.33268532 -.00005127  00000+0 -30384-3 0  9999
2 53166  53.2150 226.9974 0001149  90.8543 269.2580 15.08891593115134
STARLINK-3683           
1 53167U 22083AM  24224.34329313  .00000188  00000+0  29912-4 0  9992
2 53167  53.2150 211.9452 0001786 100.6486 259.4707 15.08854821115341
STARLINK-4105           
1 53168U 22083AN  24224.39528344  .00003064  00000+0  21047-3 0  9999
2 53168  53.2168 226.7205 0001696 101.6556 258.4627 15.08845383115141
STARLINK-4117           
1 53169U 22083AP  24224.25500831 -.00004470  00000+0 -26277-3 0  9990
2 53169  53.2151 212.6018 0001399 100.2405 259.8745 15.08858671115328
STARLINK-4095           
1 53170U 22083AQ  24224.02589659  .00000195  00000+0  30321-4 0  9996
2 53170  53.2156 223.3286 0001409  96.9034 263.2118 15.08837245115150
STARLINK-4052           
1 53171U 22083AR  24224.19929304  .00004410  00000+0  29494-3 0  9992
2 53171  53.2143 197.3568 0001385 105.7079 254.4066 15.08846064115536
STARLINK-4299           
1 53172U 22083AS  24224.41596783  .00000407  00000+0  43659-4 0  9991
2 53172  53.2164 221.5389 0001334  91.6090 268.5055 15.08844831115210
